NORAD_CAT_ID,OBJECT_NAME,OBJECT_TYPE,EPOCH,MEAN_MOTION,ECCENTRICITY,INCLINATION,RA_OF_ASC_NODE,ARG_OF_PERICENTER,MEAN_ANOMALY,BSTAR,MEAN_MOTION_DOT,MEAN_MOTION_DDOT,TLE_LINE0,TLE_LINE1,TLE_LINE2,SEMIMAJOR_AXIS,PERIOD,APOGEE,PERIGEE,DECAYED
50850.0,STARLINK-3312,PAYLOAD,2022-05-03 04:00:00,15.73235074,0.0008919,53.2147,343.6223,278.1028,70.9273,-0.0001028,-0.00015093,0.0,0 STARLINK-3312,1 50850U 22001AZ  22123.16667824 -.00015093  00000-0 -10280-3 0  9997,2 50850  53.2147 343.6223 0008919 278.1028  70.9273 15.73235074 19612,6727.795,91.531,355.661,343.66,0.0
50850.0,STARLINK-3312,PAYLOAD,2022-05-03 14:00:01,15.73188843,0.0008816,53.2153,341.55800000000005,276.3756,273.8482,0.0005499,0.0007739,0.0,0 STARLINK-3312,1 50850U 22001AZ  22123.58334491  .00077390  00000-0  54990-3 0  9996,2 50850  53.2153 341.5580 0008816 276.3756 273.8482 15.73188843  3717,6727.927,91.534,355.723,343.861,0.0
50850.0,STARLINK-3312,PAYLOAD,2022-05-03 22:00:00,15.73246059,0.0008820999999999,53.2153,339.9104,278.725,0.4658,-0.00023218,-0.00033235,0.0,0 STARLINK-3312,1 50850U 22001AZ  22123.91667824 -.00033235  00000-0 -23218-3 0  9993,2 50850  53.2153 339.9104 0008821 278.7250   0.4658 15.73246059  3703,6727.764,91.531,355.56300000000016,343.694,0.0
50850.0,STARLINK-3312,PAYLOAD,2022-05-04 06:00:02,15.73340662,0.0008872,53.2157,338.2561,278.0519,90.1588,-0.0016820999999999,-0.002324,0.0,0 STARLINK-3312,1 50850U 22001AZ  22124.25002315 -.00232400  00000-0 -16821-2 0  9995,2 50850  53.2157 338.2561 0008872 278.0519  90.1588 15.73340662 19792,6727.494000000002,91.525,355.32800000000015,343.391,0.0
50850.0,STARLINK-3312,PAYLOAD,2022-05-04 14:00:01,15.73001635,0.0008361,53.2165,336.6013,271.9124,185.2839,-0.0013811,-0.00189052,0.0,0 STARLINK-3312,1 50850U 22001AZ  22124.58334491 -.00189052  00000-0 -13811-2 0  9994,2 50850  53.2165 336.6013 0008361 271.9124 185.2839 15.73001635 19847,6728.4609999999975,91.545,355.951,344.7,0.0
50850.0,STARLINK-3312,PAYLOAD,2022-05-04 20:00:01,15.73084128,0.0007612999999999,53.2173,335.3639,271.0038,162.6961,-0.0057361,-0.00737412,0.0,0 STARLINK-3312,1 50850U 22001AZ  22124.83335648 -.00737412  00000-0 -57361-2 0  9994,2 50850  53.2173 335.3639 0007613 271.0038 162.6961 15.73084128 19887,6728.226,91.54,355.213,344.968,0.0
50850.0,STARLINK-3312,PAYLOAD,2022-05-04 22:00:01,15.72948095,0.0007139,53.2174,334.9515,270.8178,275.0603,-0.0056845,-0.00727138,0.0,0 STARLINK-3312,1 50850U 22001AZ  22124.91668981 -.00727138  00000-0 -56845-2 0  9992,2 50850  53.2174 334.9515 0007139 270.8178 275.0603 15.72948095  3719,6728.613,91.548,355.282,345.675,0.0
50850.0,STARLINK-3312,PAYLOAD,2022-05-05 14:00:01,15.717897099999998,0.0005533,53.2167,331.6545,276.9344,84.9555,-0.0043044,-0.00535454,0.0,0 STARLINK-3312,1 50850U 22001AZ  22125.58334491 -.00535454  00000-0 -43044-2 0  9997,2 50850  53.2167 331.6545 0005533 276.9344  84.9555 15.71789710  3669,6731.919,91.615,357.509,350.059,0.0
50850.0,STARLINK-3312,PAYLOAD,2022-05-05 16:00:00,15.71776251,0.0004971999999999,53.217,331.2429,282.5732,191.0857,-0.0056776,-0.00692598,0.0,0 STARLINK-3312,1 50850U 22001AZ  22125.66667824 -.00692598  00000-0 -56776-2 0  9994,2 50850  53.2170 331.2429 0004972 282.5732 191.0857 15.71776251 20019,6731.956999999999,91.616,357.17,350.475,0.0
50850.0,STARLINK-3312,PAYLOAD,2022-05-05 22:00:00,15.7136492,0.0003322,53.2173,330.0105,276.3411,172.58700000000005,-0.0054303,-0.00653478,0.0,0 STARLINK-3312,1 50850U 22001AZ  22125.91667824 -.00653478  00000-0 -54303-2 0  9990,2 50850  53.2173 330.0105 0003322 276.3411 172.5870 15.71364920  3660,6733.132,91.64,357.2340000000001,352.76,0.0
50850.0,STARLINK-3312,PAYLOAD,2022-05-06 08:00:01,15.70770456,0.0001147,53.2176,327.9511,308.2356,338.6641,-0.0060619,-0.00706293,0.0,0 STARLINK-3312,1 50850U 22001AZ  22126.33334491 -.00706293  00000-0 -60619-2 0  9999,2 50850  53.2176 327.9511 0001147 308.2356 338.6641 15.70770456 20119,6734.831,91.675,357.468,355.923,0.0
50850.0,STARLINK-3312,PAYLOAD,2022-05-06 14:00:01,15.70390985,9.32e-05,53.2177,326.7177,26.1178,235.1179,-0.006207,-0.00711257,0.0,0 STARLINK-3312,1 50850U 22001AZ  22126.58334491 -.00711257  00000-0 -62070-2 0  9995,2 50850  53.2177 326.7177 0000932  26.1178 235.1179 15.70390985  3724,6735.916,91.697,358.409,357.153,0.0
50850.0,STARLINK-3312,PAYLOAD,2022-05-07 06:00:02,15.69374342,0.0001114,53.2174,323.4344,60.9973,10.1805,-0.0065394999999999,-0.0071762,0.0,0 STARLINK-3312,1 50850U 22001AZ  22127.25002315 -.00717620  00000-0 -65395-2 0  9990,2 50850  53.2174 323.4344 0001114  60.9973  10.1805 15.69374342 20265,6738.824000000001,91.756,361.44,359.939,0.0
50850.0,STARLINK-3312,PAYLOAD,2022-05-07 14:00:01,15.68863366,0.0001344,53.2175,321.7937,56.4975,98.6354,-0.0066555,-0.00715254,0.0,0 STARLINK-3312,1 50850U 22001AZ  22127.58334491 -.00715254  00000-0 -66555-2 0  9999,2 50850  53.2175 321.7937 0001344  56.4975  98.6354 15.68863366  3711,6740.288000000001,91.786,363.0580000000001,361.247,0.0
50850.0,STARLINK-3312,PAYLOAD,2022-05-07 22:00:00,15.68353843,0.0001404,53.2176,320.1568,56.1787,182.36,-0.0068084,-0.00716335,0.0,0 STARLINK-3312,1 50850U 22001AZ  22127.91667824 -.00716335  00000-0 -68084-2 0  9995,2 50850  53.2176 320.1568 0001404  56.1787 182.3600 15.68353843  3708,6741.746999999999,91.816,364.559,362.666,0.0
50850.0,STARLINK-3312,PAYLOAD,2022-05-08 06:00:00,15.67845872,0.0001112,53.2176,318.5175,67.3935,253.94,-0.0069903,-0.00719862,0.0,0 STARLINK-3312,1 50850U 22001AZ  22128.25001157 -.00719862  00000-0 -69903-2 0  9993,2 50850  53.2176 318.5175 0001112  67.3935 253.9400 15.67845872 20415,6743.203,91.846,365.818,364.319,0.0
50850.0,STARLINK-3312,PAYLOAD,2022-05-08 14:00:01,15.67335217,0.0001294,53.2178,316.8809,46.8348,356.6806,-0.0071191999999999,-0.00718129,0.0,0 STARLINK-3312,1 50850U 22001AZ  22128.58334491 -.00718129  00000-0 -71192-2 0  9997,2 50850  53.2178 316.8809 0001294  46.8348 356.6806 15.67335217  3704,6744.668000000002,91.876,367.406,365.66,0.0
50850.0,STARLINK-3312,PAYLOAD,2022-05-08 22:00:00,15.66822023,0.0001411,53.2176,315.2476,49.2486,75.8357,-0.0072139,-0.00713058,0.0,0 STARLINK-3312,1 50850U 22001AZ  22128.91667824 -.00713058  00000-0 -72139-2 0  9991,2 50850  53.2176 315.2476 0001411  49.2486  75.8357 15.66822023  3702,6746.141,91.906,368.958,367.054,0.0
50850.0,STARLINK-3312,PAYLOAD,2022-05-09 14:00:01,15.6580524,0.0001286999999999,53.2176,311.9791,59.4003,227.0483,-0.0075694999999999,-0.00717545,0.0,0 STARLINK-3312,1 50850U 22001AZ  22129.58335648 -.00717545  00000-0 -75695-2 0  9996,2 50850  53.2176 311.9791 0001287  59.4003 227.0483 15.65805240 20626,6749.061,91.965,371.794,370.057,0.0
50850.0,STARLINK-3312,PAYLOAD,2022-05-09 22:00:00,15.65293673,0.0001142,53.2175,310.3497,59.9054,306.208,-0.0077043,-0.00715562,0.0,0 STARLINK-3312,1 50850U 22001AZ  22129.91667824 -.00715562  00000-0 -77043-2 0  9993,2 50850  53.2175 310.3497 0001142  59.9054 306.2080 15.65293673  3694,6750.531,91.996,373.167,371.625,0.0
50850.0,STARLINK-3312,PAYLOAD,2022-05-10 14:00:01,15.64273528,0.0001476,53.2177,307.0887,49.927,113.8101,-0.0080113999999999,-0.00714467,0.0,0 STARLINK-3312,1 50850U 22001AZ  22130.58334491 -.00714467  00000-0 -80114-2 0  9995,2 50850  53.2177 307.0887 0001476  49.9270 113.8101 15.64273528 20782,6753.465999999999,92.056,376.328,374.334,0.0
50850.0,STARLINK-3312,PAYLOAD,2022-05-10 18:00:00,15.640212599999998,0.0001431999999999,53.2175,306.2759,42.8185,339.9392,-0.0081462,-0.00718827,0.0,0 STARLINK-3312,1 50850U 22001AZ  22130.75001157 -.00718827  00000-0 -81462-2 0  9995,2 50850  53.2175 306.2759 0001432  42.8185 339.9392 15.64021260  3685,6754.191999999999,92.07,377.024,375.09,0.0
50850.0,STARLINK-3312,PAYLOAD,2022-05-11 22:00:00,15.62229978,0.0001414,53.2173,300.5869,48.471,63.158,-0.0086031,-0.00708224,0.0,0 STARLINK-3312,1 50850U 22001AZ  22131.91667824 -.00708224  00000-0 -86031-2 0  9990,2 50850  53.2173 300.5869 0001414  48.4710  63.1580 15.62229978 20990,6759.354,92.176,382.175,380.263,0.0
50850.0,STARLINK-3312,PAYLOAD,2022-05-12 14:00:01,15.61214388,0.0001453,53.2176,297.3411,51.0931,210.8041,-0.0090444,-0.00715014,0.0,0 STARLINK-3312,1 50850U 22001AZ  22132.58334491 -.00715014  00000-0 -90444-2 0  9993,2 50850  53.2176 297.3411 0001453  51.0931 210.8041 15.61214388  1302,6762.285,92.236,385.133,383.168,0.0
50850.0,STARLINK-3312,PAYLOAD,2022-05-12 20:00:01,15.60831078,0.0001501,53.2175,296.1272,51.6004,176.0152,-0.0091582,-0.00713467,0.0,0 STARLINK-3312,1 50850U 22001AZ  22132.83334491 -.00713467  00000-0 -91582-2 0  9995,2 50850  53.2175 296.1272 0001501  51.6004 176.0152 15.60831078 21133,6763.392,92.259,386.272,384.242,0.0
50850.0,STARLINK-3312,PAYLOAD,2022-05-12 22:00:00,15.60703034,0.0001326,53.2174,295.7223,48.2836,287.8284,-0.0091878,-0.00712299,0.0,0 STARLINK-3312,1 50850U 22001AZ  22132.91667824 -.00712299  00000-0 -91878-2 0  9993,2 50850  53.2174 295.7223 0001326  48.2836 287.8284 15.60703034  1307,6763.762,92.266,386.524,384.73,0.0
50850.0,STARLINK-3312,PAYLOAD,2022-05-13 14:00:01,15.59684396,0.0001675999999999,53.2176,292.4841,37.5202,85.1847,-0.0095918,-0.00714829,0.0,0 STARLINK-3312,1 50850U 22001AZ  22133.58334491 -.00714829  00000-0 -95918-2 0  9998,2 50850  53.2176 292.4841 0001676  37.5202  85.1847 15.59684396  1306,6766.706999999999,92.326,389.706,387.43800000000016,0.0
50850.0,STARLINK-3312,PAYLOAD,2022-05-13 22:00:00,15.59170871,0.0001450999999999,53.2172,290.8686,52.372,142.7104,-0.0096861,-0.00708324,0.0,0 STARLINK-3312,1 50850U 22001AZ  22133.91667824 -.00708324  00000-0 -96861-2 0  9995,2 50850  53.2172 290.8686 0001451  52.3720 142.7104 15.59170871 21308,6768.191999999999,92.357,391.04,389.075,0.0
50850.0,STARLINK-3312,PAYLOAD,2022-05-14 14:00:01,15.5815572,0.0001613,53.2175,287.638,36.1757,301.8212,-0.010194,-0.00716492,0.0,0 STARLINK-3312,1 50850U 22001AZ  22134.58334491 -.00716492  00000-0 -10194-1 0  9999,2 50850  53.2175 287.6380 0001613  36.1757 301.8212 15.58155720  1307,6771.132,92.417,394.089,391.905,0.0
